IRIDIUM 63              
1 25286U 98021B   25274.26230689  .00001239  00000+0  41458-3 0  9998
2 25286  86.4002  37.6029 0001897  89.4720 270.6695 14.36638443439077
IRIDIUM 69              
1 25319U 98026A   25274.29626500  .00001708  00000+0  52485-3 0  9997
2 25319  86.3967  50.5448 0003897  60.3969 299.7619 14.41079996438342
IRIDIUM 71              
1 25320U 98026B   25274.08131249  .00000772  00000+0  23309-3 0  9990
2 25320  86.3977  45.3129 0004201  94.3139 265.8541 14.41244022438846
IRIDIUM 73              
1 25344U 98032C   25274.27649245  .00001565  00000+0  38374-3 0  9993
2 25344  86.4473   1.7652 0002232  74.4485 285.6967 14.51851464445953
IRIDIUM 82              
1 25467U 98051A   25273.66484610  .00070414  00000+0  17030-2 0  9999
2 25467  86.3625  57.6389 0074264 254.6698 104.6339 15.37989305440135
